[
  {
    "id": "501",
    "name": "Keg & Brew Craft House",
    "address": "2114 N Zaragoza Rd suite b-1, El Paso, TX",
    "zip_code": "79938",
    "link": "https://kegandbrew.com/",
    "food": true
  },
  {
    "id": "502",
    "name": "Tin Man Airway",
    "address": "1300 Airway Blvd c103, El Paso, TX",
    "zip_code": "79925",
    "link": "https://untappd.com/v/tin-man-airway/9003850",
    "food": true
  },
  {
    "id": "503",
    "name": "Keg & Brew Craft House #2",
    "address": "7470 Cimarron Market Ave Suite 100 Building 7, El Paso, TX",
    "link": "https://kegandbrew.com/",
    "zip_code": "79911",
    "food": true
  },
  {
    "id": "504",
    "name": "Blazing Tree Brewery",
    "address": "11426 Rojas Dr A-13, El Paso, TX",
    "zip_code": "79938",
    "link": "https://blazingtreebreweryelpaso.com/",
    "food": true
  },
  {
    "id": "505",
    "name": "Craft Rhythm & Brews",
    "address": "1301 Texas Ave, El Paso, TX ",
    "link": "https://www.craftrhythmandbrews.com/",
    "zip_code": "79901",
    "food": false
  },
  {
    "id": "506",
    "name": "Brewtopia Taphouse",
    "address": "3260-B N Zaragoza Rd Suite 201, El Paso, TX",
    "zip_code": "79938",
    "link": "https://brewtopiataphouse.com/",
    "food": false
  },
  {
    "id": "507",
    "name": "Tin Man Montecillo",
    "address": "4935 N Mesa St #12, El Paso, TX",
    "zip_code": "79912",
    "link": "https://www.facebook.com/tinmanep/",
    "food": true
  },
  {
    "id": "508",
    "name": "The Hoppy Monk",
    "address": "4141 N Mesa St, El Paso, TX",
    "zip_code": "79902",
    "link": "https://thehoppymonk.com/elpaso/",
    "food": false
  },
  {
    "id": "509",
    "name": "Aceitunas Beer Garden",
    "address": "5200 Doniphan Dr, El Paso, TX",
    "zip_code": "79932",
    "link": "https://m.facebook.com/profile.php?id=120332477982982",
    "food": false
  },
  {
    "id": "510",
    "name": "DeadBeach Brewery",
    "address": "406 Durango St, El Paso, TX",
    "zip_code": "79901",
    "link": "https://www.deadbeach.com/",
    "food": false
  },
  {
    "id": "511",
    "name": "Craft and Social",
    "address": "305 E Franklin Ave, El Paso, TX",
    "zip_code": "79901",
    "link": "https://www.facebook.com/craftandsocial/",
    "food": true
  },
  {
    "id": "512",
    "name": "Mountain Star Brewing Company",
    "zip_code": "79935",
    "address": "11135 Pellicano Dr #2, El Paso, TX",
    "link": "https://www.mountainstarbrewingcompany.com/",
    "food": false
  },
  {
    "id": "513",
    "name": "Old Sheepdog Brewery",
    "address": "3900 Rosa Ave, El Paso, TX",
    "zip_code": "79905",
    "link": "https://www.facebook.com/oldsheepdogbrewery/",
    "food": false
  },
  {
    "id": "514",
    "name": "Undisputed Craft House",
    "address": "1881 Saul Kleinfeld Dr, El Paso, TX",
    "zip_code": "79936",
    "link": "https://www.undisputedcrafthouse.com/",
    "food": true
  },
  {
    "id": "515",
    "name": "The Lucky Dog Beer Garden",
    "address": "1810 George Dieter Dr, El Paso, TX",
    "zip_code": "79936",
    "link": "https://www.facebook.com/THELUCKYDOGEPTX/",
    "food": true
  },
  {
    "id": "516",
    "name": "Border City Ale House",
    "address": "1506 Lee Trevino Dr Suite G, El Paso, TX 79936",
    "zip_code": "79936",
    "link": "https://www.bordercityalehouse.com/",
    "food": true
  },
  {
    "id": "517",
    "name": "Three Pints Pub",
    "address": "10710 Gateway N Blvd a1, El Paso, TX",
    "zip_code": "79924",
    "link": "https://www.facebook.com/ThreePintsPub/",
    "food": false
  },
  {
    "id": "518",
    "name": "Vincent and Melo's Crafthouse",
    "address": "1691 N Zaragoza Rd Suite 3, El Paso, TX 79936",
    "zip_code": "79936",
    "link": "https://vincentandmelos.com/",
    "food": true
  },
  {
    "id": "601",
    "name": "Lazy Beach Brewing and Cafe",
    "address": "7522 Bichon Dr #100, Corpus Christi, TX",
    "zip_code": "78414",
    "link": "https://lazybeachbrewing.com/",
    "food": true
  },
  {
    "id": "602",
    "name": "Rebel Toad Brewing Co.",
    "address": "425 Lomax St, Corpus Christi, TX",
    "zip_code": "78401",
    "link": "https://www.rebeltoadbrewing.com/",
    "food": false
  },
  {
    "id": "603",
    "name": "Lorelei Brewing Company",
    "address": "520 NAS Dr, Corpus Christi, TX",
   "zip_code": "78418",
    "link": "https://www.facebook.com/loreleibrewing/",
    "food": false
  },
  {
    "id": "604",
    "name": "Nueces Brewing and Barbecuing",
    "address": "401 S Water St, Corpus Christi, TX",
    "zip_code": "78401",
    "link": "https://www.nuecesbrewing.com/bbq-menu/",
    "food": true
  },
  {
    "id": "605",
    "name": "Dewey's Beer Garden",
    "address": "2302 Rodd Field Rd # 2, Corpus Christi, TX",
    "zip_code": "78414",
    "link": "http://www.deweysbeergarden.com/",
    "food": false
  },
  {
    "id": "606",
    "name": "Tapology Texas Pub",
    "address": "4334 S Staples St, Corpus Christi, TX",
    "zip_code": "78411",
    "link": "https://tapology-pub.edan.io/",
    "food": false
  },
  {
    "id": "607",
    "name": "Brewster Street Ice House",
    "address": "1724 N Tancahua St, Corpus Christi, TX",
    "zip_code": "78401",
    "link": "https://brewsterstreet.net/",
    "food": false
  },
  {
    "id": "608",
    "name": "Hofbrau Bar",
    "address": "1214 N Chaparral St, Corpus Christi, TX",
    "zip_code": "78401",
    "link": "https://www.sirved.com/restaurant/corpus_christi-texas-usa/hofbrau-bar/640143/menus",
    "food": true
  },
  {
    "id": "609",
    "name": "Watering Hole Pub",
    "address": "5723 Leopard St, Corpus Christi, TX 78408",
    "zip_code": "78408",
    "link": "https://www.facebook.com/wateringholepub/",
    "food": false
  },
  {
    "id": "610",
    "name": "Riley's Pub",
    "address": "6314 Yorktown Blvd Suite 106, Corpus Christi, TX 78414",
    "zip_code": "78414",
    "link": "https://www.facebook.com/rileyspub2016/",
    "food": true
  },
  {
    "id": "611",
    "name": "The Point of Corpus Christi",
    "address": "601 N Chaparral St, Corpus Christi, TX 78401",
    "zip_code": "78401",
    "link": "https://www.facebook.com/ThePointofCorpusChristi/",
    "food": true
  },
  {
    "id": "612",
    "name": "Oso Rose",
    "address": "2001 Yorktown Blvd #2, Corpus Christi, TX 78418",
    "zip_code": "78418",
    "link": "https://www.facebook.com/p/Oso-Rose-Beer-Garden-100063760346386/",
    "food": false
  },
  {
  "id": "701",
  "name": "Galveston Island Brewing",
  "address": "8423 Stewart Rd, Galveston, TX 77554",
  "zip_code": "77554",
  "link": "https://www.galvestonislandbrewing.com/",
  "food": false
  },
  {
  "id": "702",
  "name": "Beerfoot Beach Bar",
  "address": "2816 Avenue R 1/2, Galveston, TX 77550",
  "zip_code": "77550",
  "link": "https://beerfootisland.com/",
  "food": false
  },
  {
  "id": "703",
  "name": "Devil and The Deep Brewery",
  "address": "2425 Postoffice St, Galveston, TX 77550",
  "zip_code": "77550",
  "link": "https://www.devilandthedeep.com/",
  "food": false
  },
  {
  "id": "704",
  "name": "Brews Brothers",
  "address": "2404 The Strand, Galveston, TX 77550",
   "zip_code": "77550",
  "link": "https://www.facebook.com/BrewsBrothersGalveston/",
  "food": true
  },
  {
  "id": "705",
  "name": "The Proletariat Gallery",
  "address": "2221 Market St #100, Galveston, TX 77550",
  "zip_code": "77550",
  "link": "https://www.proletariatgallery.com/",
  "food": true
  },
  {
  "id": "706",
  "name": "Shuttgarden Tavern",
  "address": "111 23rd St, Galveston, TX 77550",
  "zip_code": "77550",
  "link": "https://stuttgardentavern.com/",
  "food": true
  },
  {
  "id": "707",
  "name": "3 Doors Down Bar",
  "address": "102 20th St suite a, Galveston, TX 77550",
  "zip_code": "77550",
  "link": "https://www.facebook.com/3DoorsDownBar/",
  "food": false
  },
  {
  "id": "708",
  "name": "Old Cellar Bar",
  "address": "2013 Postoffice St, Galveston, TX 77550",
  "zip_code": "77550",
  "link": "https://www.galveston.com/nightlife/find-a-bar/mollys/",
  "opens": "6:00am",
  "food": false
  }
]
